start=new Date('2021-10-30T00:00:00.000Z').valueOf();
sats=[{"ECCENTRICITY":"0.00017430","OBJECT_NAME":"STARLINK-2403","APOAPSIS":"548.394","INCLINATION":"53.0558","TIME_SYSTEM":"UTC","MEAN_MOTION_DDOT":"0.0000000000000","FILE":"3191844","MEAN_ELEMENT_THEORY":"SGP4","LAUNCH_DATE":"2021-03-11","MEAN_ANOMALY":"292.2410","OBJECT_ID":"2021-018AK","GP_ID":"188467598","PERIAPSIS":"545.980","OBJECT_TYPE":"PAYLOAD","MEAN_MOTION":"15.06408544","REV_AT_EPOCH":"3658","SEMIMAJOR_AXIS":"6925.322","ELEMENT_SET_NO":"999","CLASSIFICATION_TYPE":"U","EPOCH":"2021-10-29T20:49:55.489440","RA_OF_ASC_NODE":"207.5854","TLE_LINE2":"2 47820  53.0558 207.5854 0001743  67.8764 292.2410 15.06408544 36582","SITE":"AFETR","EPHEMERIS_TYPE":"0","TLE_LINE1":"1 47820U 21018AK  21302.86800335  .00002662  00000-0  19753-3 0  9998","COUNTRY_CODE":"US","ARG_OF_PERICENTER":"67.8764","MEAN_MOTION_DOT":"0.00002662","REF_FRAME":"TEME","RCS_SIZE":"LARGE","CENTER_NAME":"EARTH","NORAD_CAT_ID":"47820","BSTAR":"0.00019753000000","DECAY_DATE":null,"PERIOD":"95.592"},{"APOAPSIS":"548.498","INCLINATION":"53.0551","OBJECT_NAME":"STARLINK-2406","ECCENTRICITY":"0.00018900","MEAN_ELEMENT_THEORY":"SGP4","FILE":"3191844","TIME_SYSTEM":"UTC","MEAN_MOTION_DDOT":"0.0000000000000","OBJECT_TYPE":"PAYLOAD","GP_ID":"188468353","PERIAPSIS":"545.880","MEAN_MOTION":"15.06408014","OBJECT_ID":"2021-018AL","LAUNCH_DATE":"2021-03-11","MEAN_ANOMALY":"288.4792","RA_OF_ASC_NODE":"197.3910","EPOCH":"2021-10-29T21:53:36.105216","CLASSIFICATION_TYPE":"U","REV_AT_EPOCH":"3667","SEMIMAJOR_AXIS":"6925.324","ELEMENT_SET_NO":"999","COUNTRY_CODE":"US","TLE_LINE1":"1 47821U 21018AL  21302.91222344  .00004008  00000-0  28775-3 0  9993","ARG_OF_PERICENTER":"71.6403","MEAN_MOTION_DOT":"0.00004008","TLE_LINE2":"2 47821  53.0551 197.3910 0001890  71.6403 288.4792 15.06408014 36673","SITE":"AFETR","EPHEMERIS_TYPE":"0","RCS_SIZE":"LARGE","NORAD_CAT_ID":"47821","CENTER_NAME":"EARTH","REF_FRAME":"TEME","DECAY_DATE":null,"PERIOD":"95.592","BSTAR":"0.00028775000000"},{"RA_OF_ASC_NODE":"207.3284","SEMIMAJOR_AXIS":"6925.355","ELEMENT_SET_NO":"999","REV_AT_EPOCH":"3654","CLASSIFICATION_TYPE":"U","EPOCH":"2021-10-29T22:09:33.520896","TLE_LINE1":"1 47822U 21018AM  21302.92330464  .00001007  00000-0  86478-4 0  9999","COUNTRY_CODE":"US","ARG_OF_PERICENTER":"70.1083","MEAN_MOTION_DOT":"0.00001007","TLE_LINE2":"2 47822  53.0552 207.3284 0001618  70.1083 290.0080 15.06397875 36544","EPHEMERIS_TYPE":"0","SITE":"AFETR","RCS_SIZE":"LARGE","CENTER_NAME":"EARTH","NORAD_CAT_ID":"47822","REF_FRAME":"TEME","DECAY_DATE":null,"PERIOD":"95.592","BSTAR":"0.00008647800000","APOAPSIS":"548.341","INCLINATION":"53.0552","OBJECT_NAME":"STARLINK-2407","ECCENTRICITY":"0.00016180","FILE":"3191844","MEAN_ELEMENT_THEORY":"SGP4","TIME_SYSTEM":"UTC","MEAN_MOTION_DDOT":"0.0000000000000","GP_ID":"188468598","PERIAPSIS":"546.100","OBJECT_TYPE":"PAYLOAD","MEAN_MOTION":"15.06397875","LAUNCH_DATE":"2021-03-11","OBJECT_ID":"2021-018AM","MEAN_ANOMALY":"290.0080"},{"MEAN_MOTION":"15.06400308","GP_ID":"188436604","PERIAPSIS":"545.916","OBJECT_TYPE":"PAYLOAD","MEAN_ANOMALY":"293.7745","LAUNCH_DATE":"2021-03-11","OBJECT_ID":"2021-018AN","FILE":"3191412","MEAN_ELEMENT_THEORY":"SGP4","MEAN_MOTION_DDOT":"0.0000000000000","TIME_SYSTEM":"UTC","INCLINATION":"53.0557","APOAPSIS":"548.509","ECCENTRICITY":"0.00018720","OBJECT_NAME":"STARLINK-2408","PERIOD":"95.592","DECAY_DATE":null,"BSTAR":"0.00008681000000","CENTER_NAME":"EARTH","NORAD_CAT_ID":"47823","RCS_SIZE":"LARGE","REF_FRAME":"TEME","ARG_OF_PERICENTER":"66.3441","MEAN_MOTION_DOT":"0.00001012","TLE_LINE1":"1 47823U 21018AN  21301.94376297  .00001012  00000-0  86810-4 0  9991","COUNTRY_CODE":"US","EPHEMERIS_TYPE":"0","SITE":"AFETR","TLE_LINE2":"2 47823  53.0557 201.7327 0001872  66.3441 293.7745 15.06400308 36536","RA_OF_ASC_NODE":"201.7327","ELEMENT_SET_NO":"999","SEMIMAJOR_AXIS":"6925.348","REV_AT_EPOCH":"3653","CLASSIFICATION_TYPE":"U","EPOCH":"2021-10-28T22:39:01.120608"},{"MEAN_MOTION":"15.06400703","OBJECT_TYPE":"PAYLOAD","GP_ID":"188468098","PERIAPSIS":"545.963","MEAN_ANOMALY":"286.7581","LAUNCH_DATE":"2021-03-11","OBJECT_ID":"2021-018AP","MEAN_ELEMENT_THEORY":"SGP4","FILE":"3191844","MEAN_MOTION_DDOT":"0.0000000000000","TIME_SYSTEM":"UTC","INCLINATION":"53.0539","APOAPSIS":"548.460","OBJECT_NAME":"STARLINK-2409","ECCENTRICITY":"0.00018030","PERIOD":"95.592","DECAY_DATE":null,"BSTAR":"0.00006214000000","NORAD_CAT_ID":"47824","CENTER_NAME":"EARTH","RCS_SIZE":"LARGE","REF_FRAME":"TEME","MEAN_MOTION_DOT":"0.00000644","ARG_OF_PERICENTER":"73.3605","TLE_LINE1":"1 47824U 21018AP  21302.92790836  .00000644  00000-0  62140-4 0  9990","COUNTRY_CODE":"US","EPHEMERIS_TYPE":"0","SITE":"AFETR","TLE_LINE2":"2 47824  53.0539 197.3258 0001803  73.3605 286.7581 15.06400703 36678","RA_OF_ASC_NODE":"197.3258","EPOCH":"2021-10-29T22:16:11.282304","CLASSIFICATION_TYPE":"U","SEMIMAJOR_AXIS":"6925.346","ELEMENT_SET_NO":"999","REV_AT_EPOCH":"3667"},{"OBJECT_ID":"2021-018AQ","LAUNCH_DATE":"2021-03-11","MEAN_ANOMALY":"276.7855","OBJECT_TYPE":"PAYLOAD","PERIAPSIS":"546.022","GP_ID":"188468853","MEAN_MOTION":"15.06398113","TIME_SYSTEM":"UTC","MEAN_MOTION_DDOT":"0.0000000000000","FILE":"3191844","MEAN_ELEMENT_THEORY":"SGP4","OBJECT_NAME":"STARLINK-2410","ECCENTRICITY":"0.00017290","APOAPSIS":"548.417","INCLINATION":"53.0561","BSTAR":"0.00017498000000","DECAY_DATE":null,"PERIOD":"95.592","REF_FRAME":"TEME","RCS_SIZE":"LARGE","NORAD_CAT_ID":"47825","CENTER_NAME":"EARTH","TLE_LINE2":"2 47825  53.0561 197.5144 0001729  83.3330 276.7855 15.06398113 36677","SITE":"AFETR","EPHEMERIS_TYPE":"0","COUNTRY_CODE":"US","TLE_LINE1":"1 47825U 21018AQ  21302.87999204  .00002326  00000-0  17498-3 0  9999","ARG_OF_PERICENTER":"83.3330","MEAN_MOTION_DOT":"0.00002326","CLASSIFICATION_TYPE":"U","EPOCH":"2021-10-29T21:07:11.312256","SEMIMAJOR_AXIS":"6925.354","REV_AT_EPOCH":"3667","ELEMENT_SET_NO":"999","RA_OF_ASC_NODE":"197.5144"},{"BSTAR":"0.00008052400000","PERIOD":"95.592","DECAY_DATE":null,"REF_FRAME":"TEME","NORAD_CAT_ID":"47826","CENTER_NAME":"EARTH","RCS_SIZE":"LARGE","EPHEMERIS_TYPE":"0","SITE":"AFETR","TLE_LINE2":"2 47826  53.0555 197.5480 0001981  68.7071 291.4129 15.06395224 36671","MEAN_MOTION_DOT":"0.00000918","ARG_OF_PERICENTER":"68.7071","TLE_LINE1":"1 47826U 21018AR  21302.87631037  .00000918  00000-0  80524-4 0  9993","COUNTRY_CODE":"US","EPOCH":"2021-10-29T21:01:53.215968","CLASSIFICATION_TYPE":"U","SEMIMAJOR_AXIS":"6925.363","REV_AT_EPOCH":"3667","ELEMENT_SET_NO":"999","RA_OF_ASC_NODE":"197.5480","MEAN_ANOMALY":"291.4129","LAUNCH_DATE":"2021-03-11","OBJECT_ID":"2021-018AR","MEAN_MOTION":"15.06395224","OBJECT_TYPE":"PAYLOAD","GP_ID":"188469098","PERIAPSIS":"545.856","MEAN_MOTION_DDOT":"0.0000000000000","TIME_SYSTEM":"UTC","FILE":"3191844","MEAN_ELEMENT_THEORY":"SGP4","ECCENTRICITY":"0.00019810","OBJECT_NAME":"STARLINK-2411","INCLINATION":"53.0555","APOAPSIS":"548.600"},{"FILE":"3191844","MEAN_ELEMENT_THEORY":"SGP4","TIME_SYSTEM":"UTC","MEAN_MOTION_DDOT":"0.0000000000000","APOAPSIS":"548.428","INCLINATION":"53.0568","OBJECT_NAME":"STARLINK-2413","ECCENTRICITY":"0.00017750","GP_ID":"188467852","PERIAPSIS":"545.969","OBJECT_TYPE":"PAYLOAD","MEAN_MOTION":"15.06404838","LAUNCH_DATE":"2021-03-11","OBJECT_ID":"2021-018AS","MEAN_ANOMALY":"286.8982","COUNTRY_CODE":"US","TLE_LINE1":"1 47827U 21018AS  21302.83573261  .00002460  00000-0  18396-3 0  9995","MEAN_MOTION_DOT":"0.00002460","ARG_OF_PERICENTER":"73.2202","TLE_LINE2":"2 47827  53.0568 187.7315 0001775  73.2202 286.8982 15.06404838 36860","SITE":"AFETR","EPHEMERIS_TYPE":"0","RA_OF_ASC_NODE":"187.7315","ELEMENT_SET_NO":"999","SEMIMAJOR_AXIS":"6925.334","REV_AT_EPOCH":"3686","EPOCH":"2021-10-29T20:03:27.297504","CLASSIFICATION_TYPE":"U","DECAY_DATE":null,"PERIOD":"95.592","BSTAR":"0.00018396000000","RCS_SIZE":"LARGE","CENTER_NAME":"EARTH","NORAD_CAT_ID":"47827","REF_FRAME":"TEME"},{"FILE":"3191844","MEAN_ELEMENT_THEORY":"SGP4","MEAN_MOTION_DDOT":"0.0000000000000","TIME_SYSTEM":"UTC","INCLINATION":"53.0555","APOAPSIS":"548.416","OBJECT_NAME":"STARLINK-2415","ECCENTRICITY":"0.00017600","MEAN_MOTION":"15.06405220","PERIAPSIS":"545.979","GP_ID":"188467599","OBJECT_TYPE":"PAYLOAD","MEAN_ANOMALY":"288.6199","LAUNCH_DATE":"2021-03-11","OBJECT_ID":"2021-018AT","ARG_OF_PERICENTER":"71.4981","MEAN_MOTION_DOT":"0.00001496","TLE_LINE1":"1 47828U 21018AT  21302.92698918  .00001496  00000-0  11932-3 0  9990","COUNTRY_CODE":"US","EPHEMERIS_TYPE":"0","SITE":"AFETR","TLE_LINE2":"2 47828  53.0555 207.3179 0001760  71.4981 288.6199 15.06405220 36543","RA_OF_ASC_NODE":"207.3179","SEMIMAJOR_AXIS":"6925.333","REV_AT_EPOCH":"3654","ELEMENT_SET_NO":"999","EPOCH":"2021-10-29T22:14:51.865152","CLASSIFICATION_TYPE":"U","PERIOD":"95.592","DECAY_DATE":null,"BSTAR":"0.00011932000000","CENTER_NAME":"EARTH","NORAD_CAT_ID":"47828","RCS_SIZE":"LARGE","REF_FRAME":"TEME"},{"APOAPSIS":"548.470","INCLINATION":"53.0544","OBJECT_NAME":"STARLINK-2416","ECCENTRICITY":"0.00018500","MEAN_ELEMENT_THEORY":"SGP4","FILE":"3191844","TIME_SYSTEM":"UTC","MEAN_MOTION_DDOT":"0.0000000000000","PERIAPSIS":"545.907","GP_ID":"188468354","OBJECT_TYPE":"PAYLOAD","MEAN_MOTION":"15.06408218","MEAN_ANOMALY":"287.2332","LAUNCH_DATE":"2021-03-11","OBJECT_ID":"2021-018AU","RA_OF_ASC_NODE":"207.5370","SEMIMAJOR_AXIS":"6925.323","ELEMENT_SET_NO":"999","REV_AT_EPOCH":"3652","EPOCH":"2021-10-29T21:05:51.583200","CLASSIFICATION_TYPE":"U","COUNTRY_CODE":"US","TLE_LINE1":"1 47829U 21018AU  21302.87906925  .00003512  00000-0  25447-3 0  9992","MEAN_MOTION_DOT":"0.00003512","ARG_OF_PERICENTER":"72.8860","TLE_LINE2":"2 47829  53.0544 207.5370 0001850  72.8860 287.2332 15.06408218 36520","SITE":"AFETR","EPHEMERIS_TYPE":"0","RCS_SIZE":"MEDIUM","CENTER_NAME":"EARTH","NORAD_CAT_ID":"47829","REF_FRAME":"TEME","DECAY_DATE":null,"PERIOD":"95.592","BSTAR":"0.00025447000000"}];
